CRE (WAAS/PRN 138)      
1 28868U 05036A   22304.52774866 -.00000077  00000+0  00000+0 0  9995
2 28868   0.9015  92.2528 0001542  78.0435 312.2216  1.00271593 62874
IOR-W (EGNOS/PRN 126)   
1 28899U 05044A   22305.03313463  .00000007  00000+0  00000+0 0  9999
2 28899   3.6081  38.5407 0002691 186.1018 251.5164  1.00270717 62227
QZS-1 (QZSS/PRN 183)    
1 37158U 10045A   22304.84077216 -.00000089  00000+0  00000+0 0  9996
2 37158  42.4768 131.5044 0748797 270.2570  79.0515  1.00274545 44430
GSAT-8 (GAGAN/PRN 127)  
1 37605U 11022A   22304.85536238  .00000080  00000+0  00000+0 0  9994
2 37605   0.0413  86.8762 0007401 161.5448 154.7453  1.00273142 39932
LUCH 5A (SDCM/PRN 140)  
1 37951U 11074B   22304.71229938 -.00000048  00000+0  00000+0 0  9991
2 37951   5.3555  95.0954 0003224  97.4570 270.8361  1.00269299 39912
SES-5 (EGNOS/PRN 136)   
1 38652U 12036A   22304.07202240  .00000033  00000+0  00000+0 0  9998
2 38652   0.0606 291.3574 0002135 285.9047 213.0230  1.00271350 37780
GSAT-10 (GAGAN/PRN 128) 
1 38779U 12051B   22304.77480021 -.00000169  00000+0  00000+0 0  9998
2 38779   0.0398  96.3116 0003675 147.2441 158.4741  1.00270919 36835
LUCH 5B (SDCM/PRN 125)  
1 38977U 12061A   22304.40743862 -.00000135  00000+0  00000+0 0  9997
2 38977   7.5839  61.5667 0004590 115.1508 353.3583  1.00271653 36899
ASTRA 5B (EGNOS/PRN 123)
1 39617U 14011B   22305.36855220  .00000149  00000+0  00000+0 0  9998
2 39617   0.0776 300.6203 0004210 267.3467 356.8801  1.00269778 31593
LUCH 5V (SDCM/PRN 141)  
1 39727U 14023A   22304.84218882 -.00000271  00000+0  00000+0 0  9999
2 39727   1.8216  76.7119 0003228 158.0979 203.1958  1.00266836 31085
GSAT-15 (GAGAN/PRN 139) 
1 41028U 15065A   22304.84192722 -.00000262  00000+0  00000+0 0  9997
2 41028   0.0170 258.4226 0002843 283.5389 254.6936  1.00273826 25527
E 117 W B (WAAS/PRN 131)
1 41589U 16038B   22305.52954981 -.00000018  00000+0  00000+0 0  9998
2 41589   0.0104 112.3469 0000303 193.4837 168.6150  1.00270175 23433
SES-15 (WAAS/PRN 133)   
1 42709U 17026A   22305.51465745  .00000054  00000+0  00000+0 0  9994
2 42709   0.0282   4.1100 0000368 173.9773 278.8467  1.00267491 20910
QZS-2 (QZSS/PRN 184)    
1 42738U 17028A   22304.77827065 -.00000213  00000+0  00000+0 0  9990
2 42738  41.5519 262.2441 0744310 270.8720 284.6847  1.00249885 19867
QZS-3 (QZSS/PRN 189)    
1 42917U 17048A   22305.54896812 -.00000354  00000+0  00000+0 0  9999
2 42917   0.0618 223.5187 0001804   6.7762 135.1497  1.00275152 19091
QZS-4 (QZSS/PRN 185)    
1 42965U 17062A   22304.50999333 -.00000321  00000+0  00000+0 0  9999
2 42965  40.7349   0.3754 0750189 270.4266  91.2681  1.00268632 18522
GALAXY 30 (WAAS/PRN 135)
1 46114U 20056C   22305.52131486  .00000031  00000+0  00000+0 0  9993
2 46114   0.0112 240.5338 0002083 331.3710 251.5605  1.00270408  8136
